STARLINK-35643          
1 66456U 25262A   26075.56138935  .00020451  00000+0  75045-3 0  9999
2 66456  43.0010 257.6852 0001756 265.2124  94.8527 15.27587320 19952
STARLINK-35466          
1 66457U 25262B   26075.81393967  .00012785  00000+0  47321-3 0  9993
2 66457  43.0035 256.1429 0001538 269.3798  90.6877 15.27586308 19995
STARLINK-35684          
1 66458U 25262C   26075.81651166  .00050600  00000+0  18319-2 0  9994
2 66458  43.0020 256.1602 0001707 266.9349  93.1308 15.27647830 19991
STARLINK-35449          
1 66459U 25262D   26075.80752529  .00015924  00000+0  58693-3 0  9999
2 66459  43.0010 256.0936 0001291 276.1692  83.9012 15.27579889 19999
STARLINK-35424          
1 66460U 25262E   26075.85362559  .00021776  00000+0  79801-3 0  9992
2 66460  43.0007 255.5781 0001942 278.1959  81.8672 15.27599711 20009
STARLINK-35132          
1 66461U 25262F   26075.85105255  .00028826  00000+0  10525-2 0  9991
2 66461  42.9986 255.5559 0001575 269.1341  90.9330 15.27595738 20001
STARLINK-35499          
1 66462U 25262G   26075.84205773  .00017556  00000+0  64545-3 0  9997
2 66462  42.9989 255.4903 0002005 264.5500  95.5123 15.27607043 20006
STARLINK-35463          
1 66463U 25262H   26075.80494584  .00016558  00000+0  60973-3 0  9996
2 66463  43.0009 256.0709 0001591 266.1992  93.8678 15.27588062 19996
STARLINK-35435          
1 66464U 25262J   26075.83306355  .00018801  00000+0  69054-3 0  9990
2 66464  42.9994 255.4160 0001841 266.1966  93.8675 15.27600712 20009
STARLINK-35448          
1 66465U 25262K   26075.81522536  .00012386  00000+0  45873-3 0  9995
2 66465  43.0033 256.1479 0001578 262.3440  97.7232 15.27588539 19999
STARLINK-35388          
1 66466U 25262L   26075.78181347  .00016670  00000+0  61370-3 0  9993
2 66466  42.9968 255.8932 0002150 271.0614  88.9992 15.27591719 19991
STARLINK-35682          
1 66467U 25262M   26075.83193151  .00018932  00000+0  69547-3 0  9993
2 66467  42.9991 256.2754 0001972 256.2201 103.8431 15.27591021 19994
STARLINK-35331          
1 66468U 25262N   26075.56267726  .00019504  00000+0  71619-3 0  9993
2 66468  43.0019 257.6892 0001647 267.4959  92.5704 15.27589525 19958
STARLINK-35451          
1 66469U 25262P   26075.83820734  .00019157  00000+0  70349-3 0  9991
2 66469  42.9997 255.4556 0001587 265.4518  94.6152 15.27597372 20004
STARLINK-35655          
1 66470U 25262Q   26075.80622595  .00015575  00000+0  57407-3 0  9995
2 66470  43.0022 256.0763 0001590 293.1423  66.9261 15.27594862 19991
STARLINK-35569          
1 66471U 25262R   26075.85620262  .00020891  00000+0  76696-3 0  9998
2 66471  42.9971 255.5884 0002432 277.7437  82.3138 15.27559910 20004
