[{"OBJECT_NAME":"STARLINK-35643","OBJECT_ID":"2025-262A","EPOCH":"2026-03-16T13:28:24.039840","MEAN_MOTION":15.2758732,"ECCENTRICITY":0.0001756,"INCLINATION":43.001,"RA_OF_ASC_NODE":257.6852,"ARG_OF_PERICENTER":265.2124,"MEAN_ANOMALY":94.8527,"EPHEMERIS_TYPE":0,"CLASSIFICATION_TYPE":"U","NORAD_CAT_ID":66456,"ELEMENT_SET_NO":999,"REV_AT_EPOCH":1995,"BSTAR":0.00075045,"MEAN_MOTION_DOT":0.00020451,"MEAN_MOTION_DDOT":0},{"OBJECT_NAME":"STARLINK-35466","OBJECT_ID":"2025-262B","EPOCH":"2026-03-16T19:32:04.387488","MEAN_MOTION":15.27586308,"ECCENTRICITY":0.0001538,"INCLINATION":43.0035,"RA_OF_ASC_NODE":256.1429,"ARG_OF_PERICENTER":269.3798,"MEAN_ANOMALY":90.6877,"EPHEMERIS_TYPE":0,"CLASSIFICATION_TYPE":"U","NORAD_CAT_ID":66457,"ELEMENT_SET_NO":999,"REV_AT_EPOCH":1999,"BSTAR":0.00047321,"MEAN_MOTION_DOT":0.00012785,"MEAN_MOTION_DDOT":0},{"OBJECT_NAME":"STARLINK-35684","OBJECT_ID":"2025-262C","EPOCH":"2026-03-16T19:35:46.607424","MEAN_MOTION":15.2764783,"ECCENTRICITY":0.0001707,"INCLINATION":43.002,"RA_OF_ASC_NODE":256.1602,"ARG_OF_PERICENTER":266.9349,"MEAN_ANOMALY":93.1308,"EPHEMERIS_TYPE":0,"CLASSIFICATION_TYPE":"U","NORAD_CAT_ID":66458,"ELEMENT_SET_NO":999,"REV_AT_EPOCH":1999,"BSTAR":0.0018319,"MEAN_MOTION_DOT":0.000506,"MEAN_MOTION_DDOT":0},{"OBJECT_NAME":"STARLINK-35449","OBJECT_ID":"2025-262D","EPOCH":"2026-03-16T19:22:50.185056","MEAN_MOTION":15.27579889,"ECCENTRICITY":0.0001291,"INCLINATION":43.001,"RA_OF_ASC_NODE":256.0936,"ARG_OF_PERICENTER":276.1692,"MEAN_ANOMALY":83.9012,"EPHEMERIS_TYPE":0,"CLASSIFICATION_TYPE":"U","NORAD_CAT_ID":66459,"ELEMENT_SET_NO":999,"REV_AT_EPOCH":1999,"BSTAR":0.00058693,"MEAN_MOTION_DOT":0.00015924,"MEAN_MOTION_DDOT":0},{"OBJECT_NAME":"STARLINK-35424","OBJECT_ID":"2025-262E","EPOCH":"2026-03-16T20:29:13.250976","MEAN_MOTION":15.27599711,"ECCENTRICITY":0.0001942,"INCLINATION":43.0007,"RA_OF_ASC_NODE":255.5781,"ARG_OF_PERICENTER":278.1959,"MEAN_ANOMALY":81.8672,"EPHEMERIS_TYPE":0,"CLASSIFICATION_TYPE":"U","NORAD_CAT_ID":66460,"ELEMENT_SET_NO":999,"REV_AT_EPOCH":2000,"BSTAR":0.00079801,"MEAN_MOTION_DOT":0.00021776,"MEAN_MOTION_DDOT":0},{"OBJECT_NAME":"STARLINK-35132","OBJECT_ID":"2025-262F","EPOCH":"2026-03-16T20:25:30.940320","MEAN_MOTION":15.27595738,"ECCENTRICITY":0.0001575,"INCLINATION":42.9986,"RA_OF_ASC_NODE":255.5559,"ARG_OF_PERICENTER":269.1341,"MEAN_ANOMALY":90.933,"EPHEMERIS_TYPE":0,"CLASSIFICATION_TYPE":"U","NORAD_CAT_ID":66461,"ELEMENT_SET_NO":999,"REV_AT_EPOCH":2000,"BSTAR":0.0010525,"MEAN_MOTION_DOT":0.00028826,"MEAN_MOTION_DDOT":0},{"OBJECT_NAME":"STARLINK-35499","OBJECT_ID":"2025-262G","EPOCH":"2026-03-16T20:12:33.787872","MEAN_MOTION":15.27607043,"ECCENTRICITY":0.0002005,"INCLINATION":42.9989,"RA_OF_ASC_NODE":255.4903,"ARG_OF_PERICENTER":264.55,"MEAN_ANOMALY":95.5123,"EPHEMERIS_TYPE":0,"CLASSIFICATION_TYPE":"U","NORAD_CAT_ID":66462,"ELEMENT_SET_NO":999,"REV_AT_EPOCH":2000,"BSTAR":0.00064545,"MEAN_MOTION_DOT":0.00017556,"MEAN_MOTION_DDOT":0},{"OBJECT_NAME":"STARLINK-35463","OBJECT_ID":"2025-262H","EPOCH":"2026-03-16T19:19:07.320576","MEAN_MOTION":15.27588062,"ECCENTRICITY":0.0001591,"INCLINATION":43.0009,"RA_OF_ASC_NODE":256.0709,"ARG_OF_PERICENTER":266.1992,"MEAN_ANOMALY":93.8678,"EPHEMERIS_TYPE":0,"CLASSIFICATION_TYPE":"U","NORAD_CAT_ID":66463,"ELEMENT_SET_NO":999,"REV_AT_EPOCH":1999,"BSTAR":0.00060973,"MEAN_MOTION_DOT":0.00016558,"MEAN_MOTION_DDOT":0},{"OBJECT_NAME":"STARLINK-35435","OBJECT_ID":"2025-262J","EPOCH":"2026-03-16T19:59:36.690720","MEAN_MOTION":15.27600712,"ECCENTRICITY":0.0001841,"INCLINATION":42.9994,"RA_OF_ASC_NODE":255.416,"ARG_OF_PERICENTER":266.1966,"MEAN_ANOMALY":93.8675,"EPHEMERIS_TYPE":0,"CLASSIFICATION_TYPE":"U","NORAD_CAT_ID":66464,"ELEMENT_SET_NO":999,"REV_AT_EPOCH":2000,"BSTAR":0.00069054,"MEAN_MOTION_DOT":0.00018801,"MEAN_MOTION_DDOT":0},{"OBJECT_NAME":"STARLINK-35448","OBJECT_ID":"2025-262K","EPOCH":"2026-03-16T19:33:55.471104","MEAN_MOTION":15.27588539,"ECCENTRICITY":0.0001578,"INCLINATION":43.0033,"RA_OF_ASC_NODE":256.1479,"ARG_OF_PERICENTER":262.344,"MEAN_ANOMALY":97.7232,"EPHEMERIS_TYPE":0,"CLASSIFICATION_TYPE":"U","NORAD_CAT_ID":66465,"ELEMENT_SET_NO":999,"REV_AT_EPOCH":1999,"BSTAR":0.00045873,"MEAN_MOTION_DOT":0.00012386,"MEAN_MOTION_DDOT":0},{"OBJECT_NAME":"STARLINK-35388","OBJECT_ID":"2025-262L","EPOCH":"2026-03-16T18:45:48.683808","MEAN_MOTION":15.27591719,"ECCENTRICITY":0.000215,"INCLINATION":42.9968,"RA_OF_ASC_NODE":255.8932,"ARG_OF_PERICENTER":271.0614,"MEAN_ANOMALY":88.9992,"EPHEMERIS_TYPE":0,"CLASSIFICATION_TYPE":"U","NORAD_CAT_ID":66466,"ELEMENT_SET_NO":999,"REV_AT_EPOCH":1999,"BSTAR":0.0006137,"MEAN_MOTION_DOT":0.0001667,"MEAN_MOTION_DDOT":0},{"OBJECT_NAME":"STARLINK-35682","OBJECT_ID":"2025-262M","EPOCH":"2026-03-16T19:57:58.882464","MEAN_MOTION":15.27591021,"ECCENTRICITY":0.0001972,"INCLINATION":42.9991,"RA_OF_ASC_NODE":256.2754,"ARG_OF_PERICENTER":256.2201,"MEAN_ANOMALY":103.8431,"EPHEMERIS_TYPE":0,"CLASSIFICATION_TYPE":"U","NORAD_CAT_ID":66467,"ELEMENT_SET_NO":999,"REV_AT_EPOCH":1999,"BSTAR":0.00069547,"MEAN_MOTION_DOT":0.00018932,"MEAN_MOTION_DDOT":0},{"OBJECT_NAME":"STARLINK-35331","OBJECT_ID":"2025-262N","EPOCH":"2026-03-16T13:30:15.315264","MEAN_MOTION":15.27589525,"ECCENTRICITY":0.0001647,"INCLINATION":43.0019,"RA_OF_ASC_NODE":257.6892,"ARG_OF_PERICENTER":267.4959,"MEAN_ANOMALY":92.5704,"EPHEMERIS_TYPE":0,"CLASSIFICATION_TYPE":"U","NORAD_CAT_ID":66468,"ELEMENT_SET_NO":999,"REV_AT_EPOCH":1995,"BSTAR":0.00071619,"MEAN_MOTION_DOT":0.00019504,"MEAN_MOTION_DDOT":0},{"OBJECT_NAME":"STARLINK-35451","OBJECT_ID":"2025-262P","EPOCH":"2026-03-16T20:07:01.114176","MEAN_MOTION":15.27597372,"ECCENTRICITY":0.0001587,"INCLINATION":42.9997,"RA_OF_ASC_NODE":255.4556,"ARG_OF_PERICENTER":265.4518,"MEAN_ANOMALY":94.6152,"EPHEMERIS_TYPE":0,"CLASSIFICATION_TYPE":"U","NORAD_CAT_ID":66469,"ELEMENT_SET_NO":999,"REV_AT_EPOCH":2000,"BSTAR":0.00070349,"MEAN_MOTION_DOT":0.00019157,"MEAN_MOTION_DDOT":0},{"OBJECT_NAME":"STARLINK-35655","OBJECT_ID":"2025-262Q","EPOCH":"2026-03-16T19:20:57.922080","MEAN_MOTION":15.27594862,"ECCENTRICITY":0.000159,"INCLINATION":43.0022,"RA_OF_ASC_NODE":256.0763,"ARG_OF_PERICENTER":293.1423,"MEAN_ANOMALY":66.9261,"EPHEMERIS_TYPE":0,"CLASSIFICATION_TYPE":"U","NORAD_CAT_ID":66470,"ELEMENT_SET_NO":999,"REV_AT_EPOCH":1999,"BSTAR":0.00057407,"MEAN_MOTION_DOT":0.00015575,"MEAN_MOTION_DDOT":0},{"OBJECT_NAME":"STARLINK-35569","OBJECT_ID":"2025-262R","EPOCH":"2026-03-16T20:32:55.906368","MEAN_MOTION":15.2755991,"ECCENTRICITY":0.0002432,"INCLINATION":42.9971,"RA_OF_ASC_NODE":255.5884,"ARG_OF_PERICENTER":277.7437,"MEAN_ANOMALY":82.3138,"EPHEMERIS_TYPE":0,"CLASSIFICATION_TYPE":"U","NORAD_CAT_ID":66471,"ELEMENT_SET_NO":999,"REV_AT_EPOCH":2000,"BSTAR":0.00076696,"MEAN_MOTION_DOT":0.00020891,"MEAN_MOTION_DDOT":0}]
